NORAD_CAT_ID,OBJECT_NAME,OBJECT_TYPE,EPOCH,MEAN_MOTION,ECCENTRICITY,INCLINATION,RA_OF_ASC_NODE,ARG_OF_PERICENTER,MEAN_ANOMALY,BSTAR,MEAN_MOTION_DOT,MEAN_MOTION_DDOT,TLE_LINE0,TLE_LINE1,TLE_LINE2,SEMIMAJOR_AXIS,PERIOD,APOGEE,PERIGEE,DECAYED
52619.0,STARLINK-3741,PAYLOAD,2022-05-20 16:00:00,15.80279751,0.0001046,53.2168,50.8449,69.5551,332.898,-0.0043442,-0.00764726,0.0,0 STARLINK-3741,1 52619U 22052X   22140.66667824 -.00764726  00000-0 -43442-2 0  9991,2 52619  53.2168  50.8449 0001046  69.5551 332.8980 15.80279751  1304,6707.786,91.123,330.353,328.949,0.0
52619.0,STARLINK-3741,PAYLOAD,2022-05-21 20:00:01,15.78161086,0.0001209,53.2178,45.0194,79.4009,119.7283,-0.005553,-0.00875649,0.0,0 STARLINK-3741,1 52619U 22052X   22141.83334491 -.00875649  00000-0 -55530-2 0  9990,2 52619  53.2178  45.0194 0001209  79.4009 119.7283 15.78161086  1482,6713.788000000001,91.245,336.465,334.841,0.0
52619.0,STARLINK-3741,PAYLOAD,2022-05-21 22:00:00,15.7800445,0.0001061,53.2176,44.6048,78.9456,233.8798,-0.0056033,-0.00877129,0.0,0 STARLINK-3741,1 52619U 22052X   22141.91667824 -.00877129  00000-0 -56033-2 0  9992,2 52619  53.2176  44.6048 0001061  78.9456 233.8798 15.78004450  1300,6714.232,91.254,336.81,335.385,0.0
52619.0,STARLINK-3741,PAYLOAD,2022-05-22 14:00:01,15.76744176,0.0001081,53.2171,41.2838,81.98299999999998,58.7167,-0.0059063,-0.00873973,0.0,0 STARLINK-3741,1 52619U 22052X   22142.58334491 -.00873973  00000-0 -59063-2 0  9996,2 52619  53.2171  41.2838 0001081  81.9830  58.7167 15.76744176  1305,6717.81,91.327,340.401,338.9480000000001,0.0
52619.0,STARLINK-3741,PAYLOAD,2022-05-22 20:00:01,15.76273276,0.0001111,53.2174,40.0414,74.6906,45.6808,-0.0060433,-0.00875514,0.0,0 STARLINK-3741,1 52619U 22052X   22142.83334491 -.00875514  00000-0 -60433-2 0  9990,2 52619  53.2174  40.0414 0001111  74.6906  45.6808 15.76273276  1644,6719.147,91.355,341.759,340.266,0.0
52619.0,STARLINK-3741,PAYLOAD,2022-05-22 22:00:01,15.76113873,0.000118,53.2174,39.6278,80.7059,152.8612,-0.0060618,-0.00872352,0.0,0 STARLINK-3741,1 52619U 22052X   22142.91668981 -.00872352  00000-0 -60618-2 0  9995,2 52619  53.2174  39.6278 0001180  80.7059 152.8612 15.76113873  1302,6719.6,91.364,342.2580000000001,340.672,0.0
52619.0,STARLINK-3741,PAYLOAD,2022-05-23 14:00:01,15.7485616,9.57e-05,53.2173,36.3161,101.1819,315.6564,-0.0064207,-0.00873857,0.0,0 STARLINK-3741,1 52619U 22052X   22143.58334491 -.00873857  00000-0 -64207-2 0  9994,2 52619  53.2173  36.3161 0000957 101.1819 315.6564 15.74856160  1305,6723.178000000001,91.437,345.686,344.399,0.0
52619.0,STARLINK-3741,PAYLOAD,2022-05-23 20:00:01,15.74386517,9.83e-05,53.2177,35.0773,89.2999,305.5078,-0.0065784999999999,-0.00876801,0.0,0 STARLINK-3741,1 52619U 22052X   22143.83334491 -.00876801  00000-0 -65785-2 0  9996,2 52619  53.2177  35.0773 0000983  89.2999 305.5078 15.74386517  1805,6724.514,91.464,347.041,345.718,0.0
52619.0,STARLINK-3741,PAYLOAD,2022-05-23 22:00:01,15.74227306,0.0001166,53.2174,34.6648,80.7653,66.6708,-0.006608,-0.00874897,0.0,0 STARLINK-3741,1 52619U 22052X   22143.91668981 -.00874897  00000-0 -66080-2 0  9991,2 52619  53.2174  34.6648 0001166  80.7653  66.6708 15.74227306  1305,6724.968000000003,91.473,347.617,346.0490000000001,0.0
52619.0,STARLINK-3741,PAYLOAD,2022-05-24 04:00:00,15.73636678,0.0001036,53.2173,33.4269,114.4799,10.3167,-0.0042587,-0.00570069,0.0,0 STARLINK-3741,1 52619U 22052X   22144.16667824 -.00570069  00000-0 -42587-2 0  9994,2 52619  53.2173  33.4269 0001036 114.4799  10.3167 15.73636678  1852,6726.65,91.508,349.212,347.819,0.0
52619.0,STARLINK-3741,PAYLOAD,2022-05-24 12:00:00,15.73203659,0.0001122,53.2174,31.7746,95.7361,118.2588,1.2142e-05,1.085e-05,0.0,0 STARLINK-3741,1 52619U 22052X   22144.50001157  .00001085  00000-0  12142-4 0  9994,2 52619  53.2174  31.7746 0001122  95.7361 118.2588 15.73203659  1906,6727.885,91.533,350.505,348.995,0.0
52619.0,STARLINK-3741,PAYLOAD,2022-05-24 14:00:01,15.73203929,0.0001124,53.2173,31.362,100.1137,226.115,2.3032e-06,-2.96e-06,0.0,0 STARLINK-3741,1 52619U 22052X   22144.58334491 -.00000296  00000-0  23032-5 0  9997,2 52619  53.2173  31.3620 0001124 100.1137 226.1150 15.73203929  1304,6727.884,91.533,350.505,348.99300000000005,0.0
52619.0,STARLINK-3741,PAYLOAD,2022-05-24 20:00:01,15.73290165,0.0001015,53.2146,30.129,109.0595,194.0963,-0.00043487,-0.0006144,0.0,0 STARLINK-3741,1 52619U 22052X   22144.83335648 -.00061440  00000-0 -43487-3 0  9993,2 52619  53.2146  30.1290 0001015 109.0595 194.0963 15.73290165  1953,6727.638000000001,91.528,350.186,348.82,0.0
52619.0,STARLINK-3741,PAYLOAD,2022-05-24 22:00:00,15.73281152,9.8e-05,53.2145,29.7173,104.054,311.2928,-0.00044471,-0.00062782,0.0,0 STARLINK-3741,1 52619U 22052X   22144.91667824 -.00062782  00000-0 -44471-3 0  9990,2 52619  53.2145  29.7173 0000980 104.0540 311.2928 15.73281152  1300,6727.6640000000025,91.528,350.18800000000016,348.87,0.0
52619.0,STARLINK-3741,PAYLOAD,2022-05-25 04:00:00,15.73211905,8.49e-05,53.2144,28.4806,96.0476,296.0308,-5.7738e-05,-8.718e-05,0.0,0 STARLINK-3741,1 52619U 22052X   22145.16667824 -.00008718  00000-0 -57738-4 0  9998,2 52619  53.2144  28.4806 0000849  96.0476 296.0308 15.73211905  2010,6727.861,91.532,350.297,349.155,0.0
52619.0,STARLINK-3741,PAYLOAD,2022-05-25 12:00:00,15.73126728,6.8e-05,53.2149,26.8291,123.9308,357.0203,-0.00025956,-0.00036771,0.0,0 STARLINK-3741,1 52619U 22052X   22145.50001157 -.00036771  00000-0 -25956-3 0  9993,2 52619  53.2149  26.8291 0000680 123.9308 357.0203 15.73126728  2067,6728.104,91.537,350.427,349.51199999999994,0.0
52619.0,STARLINK-3741,PAYLOAD,2022-05-25 14:00:01,15.73097907,7.219999999999999e-05,53.2148,26.4163,122.7133,110.4529,0.00012441,0.000168,0.0,0 STARLINK-3741,1 52619U 22052X   22145.58334491  .00016800  00000-0  12441-3 0  9995,2 52619  53.2148  26.4163 0000722 122.7133 110.4529 15.73097907  1304,6728.186,91.539,350.537,349.565,0.0
52619.0,STARLINK-3741,PAYLOAD,2022-05-25 20:00:01,15.73124631,5.9e-05,53.2151,25.1807,119.3194,90.472,0.00026896,0.00037172,0.0,0 STARLINK-3741,1 52619U 22052X   22145.83334491  .00037172  00000-0  26896-3 0  9997,2 52619  53.2151  25.1807 0000590 119.3194  90.4720 15.73124631  2116,6728.11,91.538,350.372,349.57800000000015,0.0
52619.0,STARLINK-3741,PAYLOAD,2022-05-25 20:38:12,15.73153537,5.400000000000001e-05,53.2156,25.0481,147.4084,212.697,4.0752e-05,5.093e-05,0.0,0 STARLINK-3741,1 52619U 22052X   22145.85987034  .00005093  00000-0  40752-4 0  9991,2 52619  53.2156  25.0481 0000540 147.4084 212.6970 15.73153537  1743,6728.028,91.536,350.256,349.529,0.0
52619.0,STARLINK-3741,PAYLOAD,2022-05-26 12:00:00,15.73240553,7.950000000000001e-05,53.2145,21.8808,115.6214,271.902,0.00036694,0.00051282,0.0,0 STARLINK-3741,1 52619U 22052X   22146.50001157  .00051282  00000-0  36694-3 0  9997,2 52619  53.2145  21.8808 0000795 115.6214 271.9020 15.73240553  2214,6727.78,91.531,350.17900000000014,349.11,0.0
52619.0,STARLINK-3741,PAYLOAD,2022-05-26 14:00:01,15.73285059,9.48e-05,53.2145,21.4683,116.7279,23.032,-0.00026205,-0.00037366,0.0,0 STARLINK-3741,1 52619U 22052X   22146.58334491 -.00037366  00000-0 -26205-3 0  9991,2 52619  53.2145  21.4683 0000948 116.7279  23.0320 15.73285059  1302,6727.653,91.528,350.155,348.88,0.0
52619.0,STARLINK-3741,PAYLOAD,2022-05-26 22:00:00,15.7328263,0.0001015,53.2146,19.8207,102.1602,126.6678,-0.00046283,-0.000653,0.0,0 STARLINK-3741,1 52619U 22052X   22146.91667824 -.00065300  00000-0 -46283-3 0  9994,2 52619  53.2146  19.8207 0001015 102.1602 126.6678 15.73282630  1309,6727.66,91.528,350.207,348.842,0.0
52619.0,STARLINK-3741,PAYLOAD,2022-05-27 04:00:00,15.73226861,0.0001045,53.2144,18.5836,97.3414,108.2381,0.00016005,0.00021926,0.0,0 STARLINK-3741,1 52619U 22052X   22147.16667824  .00021926  00000-0  16005-3 0  9995,2 52619  53.2144  18.5836 0001045  97.3414 108.2381 15.73226861  2324,6727.819,91.532,350.38699999999994,348.981,0.0
52619.0,STARLINK-3741,PAYLOAD,2022-05-27 12:00:00,15.73196137,0.0001181,53.2149,16.9318,108.1295,186.4328,0.0002098,0.0002892,0.0,0 STARLINK-3741,1 52619U 22052X   22147.50001157  .00028920  00000-0  20980-3 0  9992,2 52619  53.2149  16.9318 0001181 108.1295 186.4328 15.73196137  2371,6727.906,91.533,350.566,348.977,0.0
52619.0,STARLINK-3741,PAYLOAD,2022-05-27 14:00:01,15.73209435,0.0001234,53.215,16.5192,108.3333,298.4607,-1.4736e-05,-2.688e-05,0.0,0 STARLINK-3741,1 52619U 22052X   22147.58334491 -.00002688  00000-0 -14736-4 0  9998,2 52619  53.2150  16.5192 0001234 108.3333 298.4607 15.73209435  1305,6727.868,91.533,350.56300000000016,348.903,0.0
52619.0,STARLINK-3741,PAYLOAD,2022-05-27 22:00:01,15.73174993,0.0001068,53.2149,14.8716,98.5445,37.2748,0.0002238,0.00030871,0.0,0 STARLINK-3741,1 52619U 22052X   22147.91668981  .00030871  00000-0  22380-3 0  9995,2 52619  53.2149  14.8716 0001068  98.5445  37.2748 15.73174993  1300,6727.965999999999,91.535,350.55,349.11300000000006,0.0
52619.0,STARLINK-3741,PAYLOAD,2022-05-28 12:00:00,15.73202011,0.000128,53.2144,11.9829,107.7326,93.7018,0.00019113,0.0002628999999999,0.0,0 STARLINK-3741,1 52619U 22052X   22148.50001157  .00026290  00000-0  19113-3 0  9997,2 52619  53.2144  11.9829 0001280 107.7326  93.7018 15.73202011  2531,6727.889,91.533,350.616,348.89300000000014,0.0
52619.0,STARLINK-3741,PAYLOAD,2022-05-28 14:00:01,15.73227835,0.0001329,53.2145,11.5705,107.9693,205.6924,-0.00016788,-0.00024141,0.0,0 STARLINK-3741,1 52619U 22052X   22148.58334491 -.00024141  00000-0 -16788-3 0  9995,2 52619  53.2145  11.5705 0001329 107.9693 205.6924 15.73227835  1309,6727.816,91.532,350.575,348.787,0.0
52619.0,STARLINK-3741,PAYLOAD,2022-05-28 20:17:43,15.73240104,0.0001535,53.2157,10.272,93.1746,266.945,1.305e-05,1.214e-05,0.0,0 STARLINK-3741,1 52619U 22052X   22148.84564509  .00001214  00000-0  13050-4 0  9993,2 52619  53.2157  10.2720 0001535  93.1746 266.9450 15.73240104  2218,6727.781,91.531,350.67900000000014,348.61300000000006,0.0
